NORAD_CAT_ID,OBJECT_NAME,OBJECT_TYPE,EPOCH,MEAN_MOTION,ECCENTRICITY,INCLINATION,RA_OF_ASC_NODE,ARG_OF_PERICENTER,MEAN_ANOMALY,BSTAR,MEAN_MOTION_DOT,MEAN_MOTION_DDOT,TLE_LINE0,TLE_LINE1,TLE_LINE2,SEMIMAJOR_AXIS,PERIOD,APOGEE,PERIGEE,DECAYED
52309.0,STARLINK-3756,PAYLOAD,2024-07-22 08:05:14,15.088341,0.000131,53.2153,241.7633,101.7088,258.4051,8.1196e-06,-1.59e-06,0.0,0 STARLINK-3756,1 52309U 22041BA  24204.33696931 -.00000159  00000-0  81196-5 0  9996,2 52309  53.2153 241.7633 0001310 101.7088 258.4051 15.08834100125986,6917.898,95.438,540.67,538.857,0.0
52309.0,STARLINK-3756,PAYLOAD,2024-07-23 01:34:28,15.08837894,0.0001156,53.2146,238.492,93.878,266.2345,7.4258e-05,8.94e-06,0.0,0 STARLINK-3756,1 52309U 22041BA  24205.06560714  .00000894  00000-0  74258-4 0  9991,2 52309  53.2146 238.4920 0001156  93.8780 266.2345 15.08837894126097,6917.887,95.438,540.552,538.952,0.0
52309.0,STARLINK-3756,PAYLOAD,2024-07-23 09:31:24,15.08841408,0.0001119,53.2144,237.0058,84.5166,275.5953,9.7724e-05,1.268e-05,0.0,0 STARLINK-3756,1 52309U 22041BA  24205.39680593  .00001268  00000-0  97724-4 0  9994,2 52309  53.2144 237.0058 0001119  84.5166 275.5953 15.08841408126146,6917.876,95.437,540.515,538.967,0.0
52309.0,STARLINK-3756,PAYLOAD,2024-07-24 10:57:34,15.08833865,0.0001168,53.2148,232.2489,91.7007,268.4119,3.8384e-05,3.23e-06,0.0,0 STARLINK-3756,1 52309U 22041BA  24206.45665429  .00000323  00000-0  38384-4 0  9991,2 52309  53.2148 232.2489 0001168  91.7007 268.4119 15.08833865126304,6917.899,95.438,540.572,538.956,0.0
52309.0,STARLINK-3756,PAYLOAD,2024-07-25 06:02:12,15.0883869,0.0001181,53.2151,228.6814,88.2232,271.8895,4.6997e-05,4.6e-06,0.0,0 STARLINK-3756,1 52309U 22041BA  24207.25153190  .00000460  00000-0  46997-4 0  9998,2 52309  53.2151 228.6814 0001181  88.2232 271.8895 15.08838690126428,6917.884,95.438,540.566,538.932,0.0
52309.0,STARLINK-3756,PAYLOAD,2024-07-25 09:12:58,15.08841579,0.0001236,53.2153,228.0867,91.05,269.0633,7.149e-05,8.5e-06,0.0,0 STARLINK-3756,1 52309U 22041BA  24207.38400969  .00000850  00000-0  71490-4 0  9990,2 52309  53.2153 228.0867 0001236  91.0500 269.0633 15.08841579126444,6917.876,95.437,540.596,538.886,0.0
52309.0,STARLINK-3756,PAYLOAD,2024-07-26 07:28:22,15.08840064,0.0001321,53.2151,223.9224,92.3061,267.8082,0.00010782,1.428e-05,0.0,0 STARLINK-3756,1 52309U 22041BA  24208.31136879  .00001428  00000-0  10782-3 0  9998,2 52309  53.2151 223.9224 0001321  92.3061 267.8082 15.08840064126581,6917.88,95.438,540.659,538.831,0.0
52309.0,STARLINK-3756,PAYLOAD,2024-07-26 18:36:03,15.0884472,0.0001386,53.2153,221.8411,89.0953,271.0198,0.00012013,1.625e-05,0.0,0 STARLINK-3756,1 52309U 22041BA  24208.77504529  .00001625  00000-0  12013-3 0  9997,2 52309  53.2153 221.8411 0001386  89.0953 271.0198 15.08844720126658,6917.866,95.437,540.69,538.772,0.0
52309.0,STARLINK-3756,PAYLOAD,2024-07-27 05:43:46,15.088413,0.0001439,53.216,219.7591,93.7806,266.3351,1.1188e-05,-1.1e-06,0.0,0 STARLINK-3756,1 52309U 22041BA  24209.23872870 -.00000110  00000-0  11188-4 0  9998,2 52309  53.2160 219.7591 0001439  93.7806 266.3351 15.08841300126726,6917.876,95.437,540.737,538.746,0.0
52309.0,STARLINK-3756,PAYLOAD,2024-07-27 07:19:09,15.08841335,0.0001477,53.2163,219.4616,95.7872,264.3288,6.4289e-06,-1.86e-06,0.0,0 STARLINK-3756,1 52309U 22041BA  24209.30496844 -.00000186  00000-0  64289-5 0  9993,2 52309  53.2163 219.4616 0001477  95.7872 264.3288 15.08841335126737,6917.876,95.437,540.763,538.72,0.0
52309.0,STARLINK-3756,PAYLOAD,2024-07-28 07:09:56,15.08839446,0.0001403,53.2158,215.0002,103.88,256.2348,-2.8912e-05,-7.48e-06,0.0,0 STARLINK-3756,1 52309U 22041BA  24210.29856810 -.00000748  00000-0 -28912-4 0  9993,2 52309  53.2158 215.0002 0001403 103.8800 256.2348 15.08839446126886,6917.882,95.438,540.718,538.777,0.0
52309.0,STARLINK-3756,PAYLOAD,2024-07-29 05:25:20,15.08835785,0.0001341,53.2156,210.8376,94.9576,265.157,4.0276e-06,-2.24e-06,0.0,0 STARLINK-3756,1 52309U 22041BA  24211.22593069 -.00000224  00000-0  40276-5 0  9997,2 52309  53.2156 210.8376 0001341  94.9576 265.1570 15.08835785127027,6917.893,95.438,540.686,538.831,0.0
52309.0,STARLINK-3756,PAYLOAD,2024-07-29 07:00:43,15.08835707,0.0001333,53.2157,210.5409,91.4395,268.675,5.6027e-06,-1.99e-06,0.0,0 STARLINK-3756,1 52309U 22041BA  24211.29217097 -.00000199  00000-0  56027-5 0  9990,2 52309  53.2157 210.5409 0001333  91.4395 268.6750 15.08835707127037,6917.894,95.438,540.681,538.836,0.0
52309.0,STARLINK-3756,PAYLOAD,2024-07-29 16:33:02,15.08838233,0.0001328,53.2157,208.7567,92.3403,267.7741,2.2622e-05,7.2e-07,0.0,0 STARLINK-3756,1 52309U 22041BA  24211.68960962  .00000072  00000-0  22622-4 0  9991,2 52309  53.2157 208.7567 0001328  92.3403 267.7741 15.08838233127098,6917.886,95.438,540.669,538.832,0.0
52309.0,STARLINK-3756,PAYLOAD,2024-07-30 06:51:30,15.08840381,0.0001438,53.2161,206.0827,100.8296,259.2858,7.8848e-05,9.67e-06,0.0,0 STARLINK-3756,1 52309U 22041BA  24212.28576793  .00000967  00000-0  78848-4 0  9997,2 52309  53.2161 206.0827 0001438 100.8296 259.2858 15.08840381127182,6917.879,95.438,540.739,538.749,0.0
52309.0,STARLINK-3756,PAYLOAD,2024-07-30 16:23:48,15.08850514,0.0001502,53.217,204.2979,95.6996,264.4168,0.00015708,2.214e-05,0.0,0 STARLINK-3756,1 52309U 22041BA  24212.68319929  .00002214  00000-0  15708-3 0  9999,2 52309  53.2170 204.2979 0001502  95.6996 264.4168 15.08850514127248,6917.848,95.437,540.752,538.674,0.0
52309.0,STARLINK-3756,PAYLOAD,2024-07-31 03:31:32,15.08827761,0.0001464,53.2159,202.2173,96.9188,263.1971,-1.7604e-05,-5.68e-06,0.0,0 STARLINK-3756,1 52309U 22041BA  24213.14689993 -.00000568  00000-0 -17604-4 0  9992,2 52309  53.2159 202.2173 0001464  96.9188 263.1971 15.08827761127317,6917.918,95.438,540.796,538.77,0.0
52309.0,STARLINK-3756,PAYLOAD,2024-07-31 06:42:18,15.08828252,0.0001439,53.2159,201.6225,94.9637,265.152,-1.6496e-05,-5.5e-06,0.0,0 STARLINK-3756,1 52309U 22041BA  24213.27938033 -.00000550  00000-0 -16496-4 0  9997,2 52309  53.2159 201.6225 0001439  94.9637 265.1520 15.08828252127337,6917.916,95.438,540.777,538.786,0.0
52309.0,STARLINK-3756,PAYLOAD,2024-07-31 22:36:09,15.08840882,0.0001384,53.2157,198.6471,90.3954,269.7197,6.8168e-05,7.97e-06,0.0,0 STARLINK-3756,1 52309U 22041BA  24213.94177312  .00000797  00000-0  68168-4 0  9990,2 52309  53.2157 198.6471 0001384  90.3954 269.7197 15.08840882127438,6917.878,95.437,540.7,538.785,0.0
52309.0,STARLINK-3756,PAYLOAD,2024-08-01 04:57:41,15.08846799,0.0001493,53.215,197.4561,82.1875,277.9286,6.5299e-05,7.52e-06,0.0,0 STARLINK-3756,1 52309U 22041BA  24214.20672993  .00000752  00000-0  65299-4 0  9998,2 52309  53.2150 197.4561 0001493  82.1875 277.9286 15.08846799127477,6917.86,95.437,540.757,538.692,0.0
52309.0,STARLINK-3756,PAYLOAD,2024-08-01 06:33:04,15.08848601,0.0001457,53.2147,197.1586,81.8567,278.259,0.00010799,1.431e-05,0.0,0 STARLINK-3756,1 52309U 22041BA  24214.27296917  .00001431  00000-0  10799-3 0  9992,2 52309  53.2147 197.1586 0001457  81.8567 278.2590 15.08848601127488,6917.854,95.437,540.727,538.711,0.0
52309.0,STARLINK-3756,PAYLOAD,2024-08-01 16:05:23,15.0885315,0.0001463,53.2149,195.3746,84.2616,275.8543,0.0001895,2.73e-05,0.0,0 STARLINK-3756,1 52309U 22041BA  24214.67040566  .00002730  00000-0  18950-3 0  9993,2 52309  53.2149 195.3746 0001463  84.2616 275.8543 15.08853150127540,6917.84,95.437,540.717,538.693,0.0
52309.0,STARLINK-3756,PAYLOAD,2024-08-02 04:48:28,15.0884009,0.0001321,53.2139,192.995,87.3299,272.7844,0.00019925,2.885e-05,0.0,0 STARLINK-3756,1 52309U 22041BA  24215.20033380  .00002885  00000-0  19925-3 0  9993,2 52309  53.2139 192.9950 0001321  87.3299 272.7844 15.08840090127621,6917.88,95.438,540.659,538.831,0.0
52309.0,STARLINK-3756,PAYLOAD,2024-08-02 07:59:14,15.0884509,0.0001336,53.2135,192.4001,88.3868,271.7278,0.00024508,3.615e-05,0.0,0 STARLINK-3756,1 52309U 22041BA  24215.33281148  .00003615  00000-0  24508-3 0  9999,2 52309  53.2135 192.4001 0001336  88.3868 271.7278 15.08845090127645,6917.865,95.437,540.654,538.806,0.0
52309.0,STARLINK-3756,PAYLOAD,2024-08-02 15:56:10,15.0885116,0.0001326,53.2134,190.9135,89.8704,270.244,0.00031592,4.745e-05,0.0,0 STARLINK-3756,1 52309U 22041BA  24215.66400857  .00004745  00000-0  31592-3 0  9991,2 52309  53.2134 190.9135 0001326  89.8704 270.2440 15.08851160127694,6917.846,95.437,540.629,538.794,0.0
52309.0,STARLINK-3756,PAYLOAD,2024-08-03 04:39:15,15.08839871,0.0001603,53.2161,188.5339,102.7309,257.3862,2.7505e-05,1.5e-06,0.0,0 STARLINK-3756,1 52309U 22041BA  24216.19393224  .00000150  00000-0  27505-4 0  9995,2 52309  53.2161 188.5339 0001603 102.7309 257.3862 15.08839871127775,6917.881,95.438,540.855,538.637,0.0
52309.0,STARLINK-3756,PAYLOAD,2024-08-03 07:50:02,15.08840977,0.0001619,53.2161,187.9385,106.4601,253.6569,3.0333e-05,1.95e-06,0.0,0 STARLINK-3756,1 52309U 22041BA  24216.32641224  .00000195  00000-0  30333-4 0  9998,2 52309  53.2161 187.9385 0001619 106.4601 253.6569 15.08840977127796,6917.877,95.437,540.862,538.622,0.0
52309.0,STARLINK-3756,PAYLOAD,2024-08-03 15:46:57,15.0884103,0.000164,53.2171,186.4503,108.4827,251.6344,6.6462e-05,7.7e-06,0.0,0 STARLINK-3756,1 52309U 22041BA  24216.65761228  .00000770  00000-0  66462-4 0  9992,2 52309  53.2171 186.4503 0001640 108.4827 251.6344 15.08841030127845,6917.877,95.437,540.877,538.608,0.0
52309.0,STARLINK-3756,PAYLOAD,2024-08-04 04:30:03,15.08839658,0.000143,53.2156,184.0756,96.1548,263.9607,4.1102e-05,3.66e-06,0.0,0 STARLINK-3756,1 52309U 22041BA  24217.18753482  .00000366  00000-0  41102-4 0  9999,2 52309  53.2156 184.0756 0001430  96.1548 263.9607 15.08839658127922,6917.881,95.438,540.736,538.757,0.0
52309.0,STARLINK-3756,PAYLOAD,2024-08-04 21:59:17,15.08837452,0.0001506,53.2158,180.8052,98.4794,261.6369,0.00051128,7.858e-05,0.0,0 STARLINK-3756,1 52309U 22041BA  24217.91617771  .00007858  00000-0  51128-3 0  9991,2 52309  53.2158 180.8052 0001506  98.4794 261.6369 15.08837452128032,6917.888,95.438,540.795,538.711,0.0
